[{"OBJECT_NAME":"STARLINK-5289","OBJECT_ID":"2023-010K","EPOCH":"2026-03-09T22:19:21.404640","MEAN_MOTION":14.98336568,"ECCENTRICITY":0.00029853,"INCLINATION":70.0002,"RA_OF_ASC_NODE":43.7827,"ARG_OF_PERICENTER":267.5214,"MEAN_ANOMALY":92.5603,"EPHEMERIS_TYPE":0,"CLASSIFICATION_TYPE":"U","NORAD_CAT_ID":55278,"ELEMENT_SET_NO":999,"REV_AT_EPOCH":17281,"BSTAR":6.7435226e-5,"MEAN_MOTION_DOT":7.12e-6,"MEAN_MOTION_DDOT":0},{"OBJECT_NAME":"OBJECT U","OBJECT_ID":"2017-042U","EPOCH":"2026-03-09T22:07:56.164512","MEAN_MOTION":15.00675308,"ECCENTRICITY":0.00148173,"INCLINATION":97.4238,"RA_OF_ASC_NODE":229.7372,"ARG_OF_PERICENTER":56.7191,"MEAN_ANOMALY":303.5451,"EPHEMERIS_TYPE":0,"CLASSIFICATION_TYPE":"U","NORAD_CAT_ID":42843,"ELEMENT_SET_NO":999,"REV_AT_EPOCH":47173,"BSTAR":0.00030670501,"MEAN_MOTION_DOT":3.834e-5,"MEAN_MOTION_DDOT":0}]
